CCSDS_OMM_VERS = 2.0
CREATION_DATE  = 
ORIGINATOR     = 

OBJECT_NAME    = SL-3 R/B
OBJECT_ID      = 1982-079B
CENTER_NAME    = EARTH
REF_FRAME      = TEME
TIME_SYSTEM    = UTC
MEAN_ELEMENT_THEORY = SGP/SGP4

EPOCH          = 2026-03-07T05:43:52.235328
MEAN_MOTION    = 15.24755207
ECCENTRICITY   = .00249899
INCLINATION    = 81.1480
RA_OF_ASC_NODE = 195.9703
ARG_OF_PERICENTER = 172.8489
MEAN_ANOMALY   = 187.3106

EPHEMERIS_TYPE = 0
CLASSIFICATION_TYPE = U
NORAD_CAT_ID   = 13403
ELEMENT_SET_NO = 999
REV_AT_EPOCH   = 37732
BSTAR          = .42162062E-3
MEAN_MOTION_DOT = .10565E-3
MEAN_MOTION_DDOT = 0

CCSDS_OMM_VERS = 2.0
CREATION_DATE  = 
ORIGINATOR     = 

OBJECT_NAME    = SL-14 R/B
OBJECT_ID      = 1982-092B
CENTER_NAME    = EARTH
REF_FRAME      = TEME
TIME_SYSTEM    = UTC
MEAN_ELEMENT_THEORY = SGP/SGP4

EPOCH          = 2026-03-07T06:55:54.518016
MEAN_MOTION    = 14.86663922
ECCENTRICITY   = .00191277
INCLINATION    = 82.5698
RA_OF_ASC_NODE = 143.6449
ARG_OF_PERICENTER = 312.0730
MEAN_ANOMALY   = 114.4772

EPHEMERIS_TYPE = 0
CLASSIFICATION_TYPE = U
NORAD_CAT_ID   = 13553
ELEMENT_SET_NO = 999
REV_AT_EPOCH   = 32857
BSTAR          = .75043591E-4
MEAN_MOTION_DOT = .692E-5
MEAN_MOTION_DDOT = 0

CCSDS_OMM_VERS = 2.0
CREATION_DATE  = 
ORIGINATOR     = 

OBJECT_NAME    = SL-3 R/B
OBJECT_ID      = 1983-010B
CENTER_NAME    = EARTH
REF_FRAME      = TEME
TIME_SYSTEM    = UTC
MEAN_ELEMENT_THEORY = SGP/SGP4

EPOCH          = 2026-03-07T07:14:50.762688
MEAN_MOTION    = 15.46250200
ECCENTRICITY   = .00181983
INCLINATION    = 81.1066
RA_OF_ASC_NODE = 5.1739
ARG_OF_PERICENTER = 58.7507
MEAN_ANOMALY   = 301.5518

EPHEMERIS_TYPE = 0
CLASSIFICATION_TYPE = U
NORAD_CAT_ID   = 13819
ELEMENT_SET_NO = 999
REV_AT_EPOCH   = 35757
BSTAR          = .50000455E-3
MEAN_MOTION_DOT = .24824E-3
MEAN_MOTION_DDOT = 0

CCSDS_OMM_VERS = 2.0
CREATION_DATE  = 
ORIGINATOR     = 

OBJECT_NAME    = SL-3 R/B
OBJECT_ID      = 1983-075B
CENTER_NAME    = EARTH
REF_FRAME      = TEME
TIME_SYSTEM    = UTC
MEAN_ELEMENT_THEORY = SGP/SGP4

EPOCH          = 2026-03-07T06:43:48.490176
MEAN_MOTION    = 15.38346766
ECCENTRICITY   = .00199289
INCLINATION    = 97.6143
RA_OF_ASC_NODE = 70.7662
ARG_OF_PERICENTER = 235.1812
MEAN_ANOMALY   = 124.7558

EPHEMERIS_TYPE = 0
CLASSIFICATION_TYPE = U
NORAD_CAT_ID   = 14208
ELEMENT_SET_NO = 999
REV_AT_EPOCH   = 32978
BSTAR          = .43516013E-3
MEAN_MOTION_DOT = .16488E-3
MEAN_MOTION_DDOT = 0

CCSDS_OMM_VERS = 2.0
CREATION_DATE  = 
ORIGINATOR     = 

OBJECT_NAME    = COSMOS 1536
OBJECT_ID      = 1984-013A
CENTER_NAME    = EARTH
REF_FRAME      = TEME
TIME_SYSTEM    = UTC
MEAN_ELEMENT_THEORY = SGP/SGP4

EPOCH          = 2026-03-07T03:48:48.880512
MEAN_MOTION    = 15.23783060
ECCENTRICITY   = .00126272
INCLINATION    = 82.5427
RA_OF_ASC_NODE = 110.3662
ARG_OF_PERICENTER = 293.5723
MEAN_ANOMALY   = 66.4187

EPHEMERIS_TYPE = 0
CLASSIFICATION_TYPE = U
NORAD_CAT_ID   = 14699
ELEMENT_SET_NO = 999
REV_AT_EPOCH   = 27223
BSTAR          = .26752522E-3
MEAN_MOTION_DOT = .6482E-4
MEAN_MOTION_DDOT = 0

CCSDS_OMM_VERS = 2.0
CREATION_DATE  = 
ORIGINATOR     = 

OBJECT_NAME    = SL-14 R/B
OBJECT_ID      = 1984-027B
CENTER_NAME    = EARTH
REF_FRAME      = TEME
TIME_SYSTEM    = UTC
MEAN_ELEMENT_THEORY = SGP/SGP4

EPOCH          = 2026-03-06T23:59:29.609664
MEAN_MOTION    = 14.85972773
ECCENTRICITY   = .00175813
INCLINATION    = 82.5383
RA_OF_ASC_NODE = 247.5363
ARG_OF_PERICENTER = 347.0800
MEAN_ANOMALY   = 12.9963

EPHEMERIS_TYPE = 0
CLASSIFICATION_TYPE = U
NORAD_CAT_ID   = 14820
ELEMENT_SET_NO = 999
REV_AT_EPOCH   = 24723
BSTAR          = .65150572E-4
MEAN_MOTION_DOT = .594E-5
MEAN_MOTION_DDOT = 0

CCSDS_OMM_VERS = 2.0
CREATION_DATE  = 
ORIGINATOR     = 

OBJECT_NAME    = SL-8 R/B
OBJECT_ID      = 1985-006B
CENTER_NAME    = EARTH
REF_FRAME      = TEME
TIME_SYSTEM    = UTC
MEAN_ELEMENT_THEORY = SGP/SGP4

EPOCH          = 2026-03-07T07:31:54.206112
MEAN_MOTION    = 14.37780534
ECCENTRICITY   = .00185497
INCLINATION    = 74.0431
RA_OF_ASC_NODE = 265.5208
ARG_OF_PERICENTER = 183.8336
MEAN_ANOMALY   = 348.8413

EPHEMERIS_TYPE = 0
CLASSIFICATION_TYPE = U
NORAD_CAT_ID   = 15483
ELEMENT_SET_NO = 999
REV_AT_EPOCH   = 15368
BSTAR          = .98030778E-4
MEAN_MOTION_DOT = .269E-5
MEAN_MOTION_DDOT = 0

CCSDS_OMM_VERS = 2.0
CREATION_DATE  = 
ORIGINATOR     = 

OBJECT_NAME    = SL-12 R/B(2)
OBJECT_ID      = 1985-042D
CENTER_NAME    = EARTH
REF_FRAME      = TEME
TIME_SYSTEM    = UTC
MEAN_ELEMENT_THEORY = SGP/SGP4

EPOCH          = 2026-03-07T07:21:16.581024
MEAN_MOTION    = 14.21981857
ECCENTRICITY   = .00333772
INCLINATION    = 71.1063
RA_OF_ASC_NODE = 92.7644
ARG_OF_PERICENTER = 132.0705
MEAN_ANOMALY   = 309.6317

EPHEMERIS_TYPE = 0
CLASSIFICATION_TYPE = U
NORAD_CAT_ID   = 15772
ELEMENT_SET_NO = 999
REV_AT_EPOCH   = 11405
BSTAR          = .49759019E-4
MEAN_MOTION_DOT = .63E-6
MEAN_MOTION_DDOT = 0

CCSDS_OMM_VERS = 2.0
CREATION_DATE  = 
ORIGINATOR     = 

OBJECT_NAME    = SL-14 R/B
OBJECT_ID      = 1985-069B
CENTER_NAME    = EARTH
REF_FRAME      = TEME
TIME_SYSTEM    = UTC
MEAN_ELEMENT_THEORY = SGP/SGP4

EPOCH          = 2026-03-07T07:43:26.297760
MEAN_MOTION    = 14.86430235
ECCENTRICITY   = .00182633
INCLINATION    = 82.5281
RA_OF_ASC_NODE = 27.1591
ARG_OF_PERICENTER = 195.7066
MEAN_ANOMALY   = 164.3587

EPHEMERIS_TYPE = 0
CLASSIFICATION_TYPE = U
NORAD_CAT_ID   = 15945
ELEMENT_SET_NO = 999
REV_AT_EPOCH   = 17248
BSTAR          = .89292276E-4
MEAN_MOTION_DOT = .815E-5
MEAN_MOTION_DDOT = 0

CCSDS_OMM_VERS = 2.0
CREATION_DATE  = 
ORIGINATOR     = 

OBJECT_NAME    = SL-16 R/B
OBJECT_ID      = 1985-097B
CENTER_NAME    = EARTH
REF_FRAME      = TEME
TIME_SYSTEM    = UTC
MEAN_ELEMENT_THEORY = SGP/SGP4

EPOCH          = 2026-03-07T07:15:44.807616
MEAN_MOTION    = 14.16599410
ECCENTRICITY   = .00099513
INCLINATION    = 71.0033
RA_OF_ASC_NODE = 145.5798
ARG_OF_PERICENTER = 262.6314
MEAN_ANOMALY   = 154.8039

EPHEMERIS_TYPE = 0
CLASSIFICATION_TYPE = U
NORAD_CAT_ID   = 16182
ELEMENT_SET_NO = 999
REV_AT_EPOCH   = 8689
BSTAR          = -.54289791E-4
MEAN_MOTION_DOT = -.156E-5
MEAN_MOTION_DDOT = 0

CCSDS_OMM_VERS = 2.0
CREATION_DATE  = 
ORIGINATOR     = 

OBJECT_NAME    = SL-14 R/B
OBJECT_ID      = 1986-006B
CENTER_NAME    = EARTH
REF_FRAME      = TEME
TIME_SYSTEM    = UTC
MEAN_ELEMENT_THEORY = SGP/SGP4

EPOCH          = 2026-03-07T00:43:38.828928
MEAN_MOTION    = 14.86810288
ECCENTRICITY   = .00750948
INCLINATION    = 82.5234
RA_OF_ASC_NODE = 262.2409
ARG_OF_PERICENTER = 281.8008
MEAN_ANOMALY   = 77.4793

EPHEMERIS_TYPE = 0
CLASSIFICATION_TYPE = U
NORAD_CAT_ID   = 16496
ELEMENT_SET_NO = 999
REV_AT_EPOCH   = 14881
BSTAR          = .76283805E-4
MEAN_MOTION_DOT = .741E-5
MEAN_MOTION_DDOT = 0

CCSDS_OMM_VERS = 2.0
CREATION_DATE  = 
ORIGINATOR     = 

OBJECT_NAME    = COSMOS 1743
OBJECT_ID      = 1986-034A
CENTER_NAME    = EARTH
REF_FRAME      = TEME
TIME_SYSTEM    = UTC
MEAN_ELEMENT_THEORY = SGP/SGP4

EPOCH          = 2026-03-07T01:46:08.362560
MEAN_MOTION    = 15.58334046
ECCENTRICITY   = .00018161
INCLINATION    = 82.5295
RA_OF_ASC_NODE = 76.5761
ARG_OF_PERICENTER = 315.7122
MEAN_ANOMALY   = 44.3988

EPHEMERIS_TYPE = 0
CLASSIFICATION_TYPE = U
NORAD_CAT_ID   = 16719
ELEMENT_SET_NO = 999
REV_AT_EPOCH   = 17984
BSTAR          = .51438465E-3
MEAN_MOTION_DOT = .39159E-3
MEAN_MOTION_DDOT = 0

