SL-3 R/B                
1 13403U 82079B   26066.23879902  .00010565  00000+0  42162-3 0  9991
2 13403  81.1480 195.9703 0024989 172.8489 187.3106 15.24755207377326
SL-14 R/B               
1 13553U 82092B   26066.28882544  .00000692  00000+0  75044-4 0  9999
2 13553  82.5698 143.6449 0019127 312.0730 114.4772 14.86663922328572
SL-3 R/B                
1 13819U 83010B   26066.30197642  .00024824  00000+0  50000-3 0  9993
2 13819  81.1066   5.1739 0018198  58.7507 301.5518 15.46250200357575
SL-3 R/B                
1 14208U 83075B   26066.28042234  .00016488  00000+0  43516-3 0  9991
2 14208  97.6143  70.7662 0019928 235.1812 124.7558 15.38346766329786
COSMOS 1536             
1 14699U 84013A   26066.15889908  .00006482  00000+0  26753-3 0  9998
2 14699  82.5427 110.3662 0012627 293.5723  66.4187 15.23783060272230
SL-14 R/B               
1 14820U 84027B   26065.99964826  .00000594  00000+0  65151-4 0  9997
2 14820  82.5383 247.5363 0017581 347.0800  12.9963 14.85972773247231
SL-8 R/B                
1 15483U 85006B   26066.31382183  .00000269  00000+0  98031-4 0  9990
2 15483  74.0431 265.5208 0018549 183.8336 348.8413 14.37780534153685
SL-12 R/B(2)            
1 15772U 85042D   26066.30644191  .00000063  00000+0  49759-4 0  9995
2 15772  71.1063  92.7644 0033377 132.0705 309.6317 14.21981857114051
SL-14 R/B               
1 15945U 85069B   26066.32183215  .00000815  00000+0  89292-4 0  9994
2 15945  82.5281  27.1591 0018263 195.7066 164.3587 14.86430235172483
SL-16 R/B               
1 16182U 85097B   26066.30260194 -.00000156  00000+0 -54290-4 0  9999
2 16182  71.0033 145.5798 0009951 262.6314 154.8039 14.16599410 86892
SL-14 R/B               
1 16496U 86006B   26066.03031052  .00000741  00000+0  76284-4 0  9992
2 16496  82.5234 262.2409 0075094 281.8008  77.4793 14.86810288148814
COSMOS 1743             
1 16719U 86034A   26066.07370790  .00039159  00000+0  51438-3 0  9998
2 16719  82.5295  76.5761 0001816 315.7122  44.3988 15.58334046179840
